
# C41 (GNSS)
1 44864U 19090A   25295.29874953 -.00000037  00000+0  00000+0 0  9994
2 44864  56.3494  70.6669 0016058 284.9991 236.9294  1.86231624 39803

# C42 (GNSS)
1 44865U 19090B   25295.16108878 -.00000037  00000+0  00000+0 0  9997
2 44865  56.3507  70.7055 0013283 299.3103 219.9406  1.86231595 39781

# C60 (GNSS)
1 45344U 20017A   25298.84780258 -.00000128  00000+0  00000+0 0  9998
2 45344   2.9089  42.8407 0002709 261.3698 115.5347  1.00271734 20911

# C61 (GNSS)
1 45807U 20040A   25298.28284443 -.00000341  00000+0  00000+0 0  9998
2 45807   1.8697  66.0650 0004569 316.4099 223.7843  1.00277178 19716

# C62 (GNSS)
1 56564U 23066A   25298.85896593 -.00000099  00000+0  00000+0 0  9999
2 56564   0.9253 298.4293 0004728 219.7033 345.5834  1.00273527  9042

# C50 (GNSS)
1 58654U 23207A   25298.64883718 -.00000015  00000+0  00000+0 0  9998
2 58654  55.5430  70.2290 0000613 231.8528 128.1282  1.86229878 12470

# E24 (GNSS)
1 40889U 15045A   25298.01613692  .00000002  00000+0  00000+0 0  9998
2 40889  55.0228 228.1034 0004779  27.5848 332.4530  1.70472995 63007

# E30 (GNSS)
1 40890U 15045B   25297.06361271 -.00000002  00000+0  00000+0 0  9998
2 40890  55.0221 228.1247 0002725  12.6865 347.3268  1.70472895 63014

# E07 (GNSS)
1 41859U 16069A   25298.11215087  .00000050  00000+0  00000+0 0  9993
2 41859  55.3515 107.5966 0002043 345.8031  14.2058  1.70474221 55390

# E08 (GNSS)
1 41175U 15079B   25296.86577241  .00000048  00000+0  00000+0 0  9994
2 41175  55.6866 107.7468 0002267  25.9220 334.1074  1.70474150 61161

# E09 (GNSS)
1 41174U 15079A   25297.81881130  .00000050  00000+0  00000+0 0  9997
2 41174  55.6817 107.7235 0002598  11.9531 348.0684  1.70474321 60761

# E01 (GNSS)
1 41550U 16030B   25298.42008061  .00000004  00000+0  00000+0 0  9994
2 41550  55.1707 228.1503 0002616 249.2631 110.7235  1.70473558 58669

# E02 (GNSS)
1 41549U 16030A   25298.16252752  .00000003  00000+0  00000+0 0  9990
2 41549  55.1723 228.1593 0003571 348.0423  11.9624  1.70473000 58668

# E03 (GNSS)
1 41860U 16069B   25296.20613666  .00000046  00000+0  00000+0 0  9993
2 41860  55.3472 107.6448 0002826  43.2112 316.8317  1.70474387 55615

# E04 (GNSS)
1 41861U 16069C   25298.33351670  .00000051  00000+0  00000+0 0  9990
2 41861  55.3540 107.5933 0001520 298.9002  61.0989  1.70474752 55516

# E05 (GNSS)
1 41862U 16069D   25298.47946370  .00000052  00000+0  00000+0 0  9994
2 41862  55.3513 107.5824 0000700 327.3873  32.6227  1.70474488 55647

# E21 (GNSS)
1 43055U 17079A   25296.62289122 -.00000004  00000+0  00000+0 0  9990
2 43055  55.1496 228.0166 0002239 290.2528  69.7266  1.70473846 48950

# E25 (GNSS)
1 43056U 17079B   25298.08739251  .00000002  00000+0  00000+0 0  9993
2 43056  55.1497 227.9763 0003616 294.3863  65.5892  1.70473942 48990

# E27 (GNSS)
1 43057U 17079C   25296.54830939 -.00000005  00000+0  00000+0 0  9992
2 43057  55.1478 228.0166 0003327 310.8861  49.0880  1.70473907 48951

# E31 (GNSS)
1 43058U 17079D   25298.52814622  .00000004  00000+0  00000+0 0  9992
2 43058  55.1473 227.9600 0004057 288.2544  71.7169  1.70473905 49013

# E36 (GNSS)
1 43566U 18060C   25298.28479729 -.00000077  00000+0  00000+0 0  9996
2 43566  57.2416 348.1329 0004824 273.5828  86.4292  1.70476227 45189

# E13 (GNSS)
1 43567U 18060D   25297.91911633 -.00000078  00000+0  00000+0 0  9992
2 43567  57.2417 348.1431 0005387 272.6985  87.3074  1.70476218 45160

# E15 (GNSS)
1 43564U 18060A   25298.43091471 -.00000077  00000+0  00000+0 0  9995
2 43564  57.2387 348.1243 0005905 271.0382  88.9612  1.70476209 45169

# E33 (GNSS)
1 43565U 18060B   25296.30384245 -.00000084  00000+0  00000+0 0  9992
2 43565  57.2429 348.1847 0006096 248.9358 111.0674  1.70476047 45172

# E34 (GNSS)
1 49809U 21116A   25297.76970373 -.00000079  00000+0  00000+0 0  9993
2 49809  57.2309 348.0382 0004479 230.6828 128.3505  1.70476452 24162

# E10 (GNSS)
1 49810U 21116B   25297.57638172 -.00000079  00000+0  00000+0 0  9992
2 49810  57.2317 348.0420 0003716 232.8737 120.0958  1.70476487 24183

# R01 (GNSS)
1 36111U 09070A   25295.12099160 -.00000003  00000+0  00000+0 0  9991
2 36111  64.8715  79.1021 0001453 322.2546 176.7981  2.13103680123359

# R02 (GNSS)
1 39155U 13019A   25298.74989787  .00000026  00000+0  00000+0 0  9998
2 39155  65.2897  81.4803 0023366 226.8037 132.9937  2.13104458 97282

# R03 (GNSS)
1 37867U 11064A   25298.33014698  .00000021  00000+0  00000+0 0  9994
2 37867  65.1364  80.8086 0022834 230.8315 118.9319  2.13101513108759

# R04 (GNSS)
1 44850U 19088A   25298.39857844  .00000023  00000+0  00000+0 0  9994
2 44850  65.4345  81.5745 0012399 245.7345 114.1276  2.13102022 45716

# R05 (GNSS)
1 43508U 18053A   25297.51554903  .00000016  00000+0  00000+0 0  9999
2 43508  65.4465  81.7763 0007859 215.4922 144.4452  2.13102255 57252

# R06 (GNSS)
1 36112U 09070B   25297.82023065  .00000012  00000+0  00000+0 0  9991
2 36112  64.8580  78.8585 0005886 143.8191  35.6128  2.13101084123417

# R07 (GNSS)
1 37868U 11064B   25295.92075285  .00000003  00000+0  00000+0 0  9996
2 37868  65.1416  80.9671 0019860 230.9439 251.0973  2.13102965108704

# R08 (GNSS)
1 37869U 11064C   25298.39766889  .00000022  00000+0  00000+0 0  9999
2 37869  65.1496  80.9030 0024715 246.7696 291.6576  2.13101668108761

# R09 (GNSS)
1 40315U 14075A   25294.44771302  .00000020  00000+0  00000+0 0  9990
2 40315  63.6138 198.6357 0020659 207.5129 152.4328  2.13101401 84762

# R10 (GNSS)
1 32395U 07065C   25295.01473588  .00000023  00000+0  00000+0 0  9992
2 32395  64.3235 200.0181 0017324   3.3805  30.6935  2.13100049138654

# R11 (GNSS)
1 46805U 20075A   25295.49728860  .00000026  00000+0  00000+0 0  9990
2 46805  64.5959 200.4069 0007238 234.8221 125.1678  2.13099903 38845

# R12 (GNSS)
1 44299U 19030A   25298.16842027  .00000027  00000+0  00000+0 0  9994
2 44299  64.3654 200.5288 0010503 281.1750 279.1869  2.13102189 49918

# R13 (GNSS)
1 32393U 07065A   25295.24138963  .00000025  00000+0  00000+0 0  9992
2 32393  64.3148 199.9408 0002813  63.3552  11.2955  2.13101330138702

# R14 (GNSS)
1 42939U 17055A   25295.20866070  .00000024  00000+0  00000+0 0  9991
2 42939  64.0760 199.9832 0007798 233.7892 126.1956  2.13101940 62906

# R15 (GNSS)
1 43687U 18086A   25297.14388352  .00000029  00000+0  00000+0 0  9999
2 43687  64.2920 200.5635 0008814 256.5773 103.3890  2.13102023 54254

# R16 (GNSS)
1 54377U 22161A   25298.14199337  .00000027  00000+0  00000+0 0  9998
2 54377  64.7376 200.5125 0009559 214.0055 146.0002  2.13102110 22627

# R17 (GNSS)
1 41330U 16008A   25298.18576225 -.00000033  00000+0  00000+0 0  9993
2 41330  65.1601 321.0681 0013381 216.6032 143.3549  2.13102899 75612

# R18 (GNSS)
1 39620U 14012A   25296.83140389 -.00000040  00000+0  00000+0 0  9991
2 39620  65.4346 321.9644 0013382 307.3065  52.6253  2.13103339 90209

# R19 (GNSS)
1 54031U 22130A   25298.29764578 -.00000036  00000+0  00000+0 0  9993
2 54031  64.4080 322.8470 0012832 191.7855 168.2356  2.13101638 23680

# R20 (GNSS)
1 32276U 07052B   25298.83142250 -.00000032  00000+0  00000+0 0  9999
2 32276  65.7235 323.9392 0010432 306.9782  55.6044  2.13103270140093

# R21 (GNSS)
1 40001U 14032A   25297.94277044 -.00000035  00000+0  00000+0 0  9994
2 40001  65.3698 321.6928 0009233 214.4431 145.5480  2.13106048 88447

# R22 (GNSS)
1 52984U 22075A   25296.60154976 -.00000044  00000+0  00000+0 0  9993
2 52984  64.4360 322.8155 0013643 272.9782  86.9200  2.13102163 25677

# R23 (GNSS)
1 36402U 10007C   25295.27815464 -.00000043  00000+0  00000+0 0  9999
2 36402  65.5567 322.5123 0002922 245.5670 142.3608  2.13106325121666

# R24 (GNSS)
1 45358U 20018A   25296.24831738 -.00000042  00000+0  00000+0 0  9991
2 45358  64.4974 320.7417 0012369 243.0625 116.8635  2.13102618 43616

# R25 (GNSS)
1 32275U 07052A   25298.28660101 -.00000035  00000+0  00000+0 0  9990
2 32275  65.7080 323.8342 0005937 241.3382 118.6556  2.13104224140050
